ALOS (DAICHI)           
1 28931U 06002A   26050.46215522  .00001317  00000+0  22917-3 0  9996
2 28931  98.1190   6.5137 0001663  55.9972 304.1392 14.69745774 70809
H-2A R/B                
1 28932U 06002B   26050.39441784  .00007618  00000+0  38701-3 0  9998
2 28932  98.2381 195.8556 0052159 304.1949  55.4343 15.16018384 91661
RESURS-DK 1             
1 29228U 06021A   26050.08608281  .00001852  00000+0  11189-3 0  9996
2 29228  69.9323 285.1457 0003368 186.4773 173.6350 15.12628493 84711
CZ-4B R/B               
1 29507U 06046C   26050.46741229  .00004718  00000+0  24120-3 0  9998
2 29507  97.5628  95.4241 0032576 333.2403  26.7148 15.16699308 57286
CZ-2C R/B               
1 31114U 07010B   26050.26793411  .00000106  00000+0  67861-4 0  9992
2 31114  98.3971 164.4711 0058639 348.9196  11.0686 14.20239309977103
COSMO-SKYMED 1          
1 31598U 07023A   26050.54382881  .00003734  00000+0  33490-3 0  9998
2 31598  97.8865 241.4322 0001460  90.7630 269.3758 14.96386399 12196
COSMOS 2428             
1 31792U 07029A   26050.48195384  .00000194  00000+0  12970-3 0  9990
2 31792  70.9399 241.5628 0008038 296.9594  63.0706 14.12939550961526
SL-16 R/B               
1 31793U 07029B   26050.45853536 -.00000048  00000+0  18280-6 0  9990
2 31793  70.9746 210.7052 0002388 281.6253 110.0867 14.14836666962794
KORONAS-FOTON           
1 33504U 09003A   26050.08801562  .00011711  00000+0  26608-3 0  9995
2 33504  82.4305 295.2105 0009540 216.9174 143.1417 15.42820823942877
CZ-2C R/B               
1 37731U 11030B   26050.44942414  .00001482  00000+0  19277-3 0  9994
2 37731  97.8516   8.0833 0053930  50.6942  62.5618 14.81145108787392
H-2A R/B                
1 38341U 12025E   26050.39072264  .00003899  00000+0  35566-3 0  9991
2 38341  98.4709  15.9799 0045204  14.8609 345.3926 14.95000391745483
SHIJIAN-16 (SJ-16)      
1 39358U 13057A   26050.52794706  .00000805  00000+0  81519-4 0  9997
2 39358  74.9701 219.4671 0016294 158.5741 201.6133 14.92265606668794
