CCSDS_OMM_VERS = 2.0
CREATION_DATE  = 
ORIGINATOR     = 

OBJECT_NAME    = ALOS (DAICHI)
OBJECT_ID      = 2006-002A
CENTER_NAME    = EARTH
REF_FRAME      = TEME
TIME_SYSTEM    = UTC
MEAN_ELEMENT_THEORY = SGP/SGP4

EPOCH          = 2026-02-19T11:05:30.211008
MEAN_MOTION    = 14.69745774
ECCENTRICITY   = .0001663
INCLINATION    = 98.1190
RA_OF_ASC_NODE = 6.5137
ARG_OF_PERICENTER = 55.9972
MEAN_ANOMALY   = 304.1392

EPHEMERIS_TYPE = 0
CLASSIFICATION_TYPE = U
NORAD_CAT_ID   = 28931
ELEMENT_SET_NO = 999
REV_AT_EPOCH   = 7080
BSTAR          = .22917E-3
MEAN_MOTION_DOT = .1317E-4
MEAN_MOTION_DDOT = 0

CCSDS_OMM_VERS = 2.0
CREATION_DATE  = 
ORIGINATOR     = 

OBJECT_NAME    = H-2A R/B
OBJECT_ID      = 2006-002B
CENTER_NAME    = EARTH
REF_FRAME      = TEME
TIME_SYSTEM    = UTC
MEAN_ELEMENT_THEORY = SGP/SGP4

EPOCH          = 2026-02-19T09:27:57.701376
MEAN_MOTION    = 15.16018384
ECCENTRICITY   = .0052159
INCLINATION    = 98.2381
RA_OF_ASC_NODE = 195.8556
ARG_OF_PERICENTER = 304.1949
MEAN_ANOMALY   = 55.4343

EPHEMERIS_TYPE = 0
CLASSIFICATION_TYPE = U
NORAD_CAT_ID   = 28932
ELEMENT_SET_NO = 999
REV_AT_EPOCH   = 9166
BSTAR          = .38701E-3
MEAN_MOTION_DOT = .7618E-4
MEAN_MOTION_DDOT = 0

CCSDS_OMM_VERS = 2.0
CREATION_DATE  = 
ORIGINATOR     = 

OBJECT_NAME    = RESURS-DK 1
OBJECT_ID      = 2006-021A
CENTER_NAME    = EARTH
REF_FRAME      = TEME
TIME_SYSTEM    = UTC
MEAN_ELEMENT_THEORY = SGP/SGP4

EPOCH          = 2026-02-19T02:03:57.554784
MEAN_MOTION    = 15.12628493
ECCENTRICITY   = .00033683
INCLINATION    = 69.9323
RA_OF_ASC_NODE = 285.1457
ARG_OF_PERICENTER = 186.4773
MEAN_ANOMALY   = 173.6350

EPHEMERIS_TYPE = 0
CLASSIFICATION_TYPE = U
NORAD_CAT_ID   = 29228
ELEMENT_SET_NO = 999
REV_AT_EPOCH   = 8471
BSTAR          = .11188817E-3
MEAN_MOTION_DOT = .1852E-4
MEAN_MOTION_DDOT = 0

CCSDS_OMM_VERS = 2.0
CREATION_DATE  = 
ORIGINATOR     = 

OBJECT_NAME    = CZ-4B R/B
OBJECT_ID      = 2006-046C
CENTER_NAME    = EARTH
REF_FRAME      = TEME
TIME_SYSTEM    = UTC
MEAN_ELEMENT_THEORY = SGP/SGP4

EPOCH          = 2026-02-19T11:13:04.421856
MEAN_MOTION    = 15.16699308
ECCENTRICITY   = .0032576
INCLINATION    = 97.5628
RA_OF_ASC_NODE = 95.4241
ARG_OF_PERICENTER = 333.2403
MEAN_ANOMALY   = 26.7148

EPHEMERIS_TYPE = 0
CLASSIFICATION_TYPE = U
NORAD_CAT_ID   = 29507
ELEMENT_SET_NO = 999
REV_AT_EPOCH   = 5728
BSTAR          = .2412E-3
MEAN_MOTION_DOT = .4718E-4
MEAN_MOTION_DDOT = 0

CCSDS_OMM_VERS = 2.0
CREATION_DATE  = 
ORIGINATOR     = 

OBJECT_NAME    = CZ-2C R/B
OBJECT_ID      = 2007-010B
CENTER_NAME    = EARTH
REF_FRAME      = TEME
TIME_SYSTEM    = UTC
MEAN_ELEMENT_THEORY = SGP/SGP4

EPOCH          = 2026-02-19T06:25:49.507104
MEAN_MOTION    = 14.20239309
ECCENTRICITY   = .0058639
INCLINATION    = 98.3971
RA_OF_ASC_NODE = 164.4711
ARG_OF_PERICENTER = 348.9196
MEAN_ANOMALY   = 11.0686

EPHEMERIS_TYPE = 0
CLASSIFICATION_TYPE = U
NORAD_CAT_ID   = 31114
ELEMENT_SET_NO = 999
REV_AT_EPOCH   = 97710
BSTAR          = .67861E-4
MEAN_MOTION_DOT = .106E-5
MEAN_MOTION_DDOT = 0

CCSDS_OMM_VERS = 2.0
CREATION_DATE  = 
ORIGINATOR     = 

OBJECT_NAME    = COSMO-SKYMED 1
OBJECT_ID      = 2007-023A
CENTER_NAME    = EARTH
REF_FRAME      = TEME
TIME_SYSTEM    = UTC
MEAN_ELEMENT_THEORY = SGP/SGP4

EPOCH          = 2026-02-19T13:03:06.809184
MEAN_MOTION    = 14.96386399
ECCENTRICITY   = .000146
INCLINATION    = 97.8865
RA_OF_ASC_NODE = 241.4322
ARG_OF_PERICENTER = 90.7630
MEAN_ANOMALY   = 269.3758

EPHEMERIS_TYPE = 0
CLASSIFICATION_TYPE = U
NORAD_CAT_ID   = 31598
ELEMENT_SET_NO = 999
REV_AT_EPOCH   = 1219
BSTAR          = .3349E-3
MEAN_MOTION_DOT = .3734E-4
MEAN_MOTION_DDOT = 0

CCSDS_OMM_VERS = 2.0
CREATION_DATE  = 
ORIGINATOR     = 

OBJECT_NAME    = COSMOS 2428
OBJECT_ID      = 2007-029A
CENTER_NAME    = EARTH
REF_FRAME      = TEME
TIME_SYSTEM    = UTC
MEAN_ELEMENT_THEORY = SGP/SGP4

EPOCH          = 2026-02-19T11:34:00.811776
MEAN_MOTION    = 14.12939550
ECCENTRICITY   = .0008038
INCLINATION    = 70.9399
RA_OF_ASC_NODE = 241.5628
ARG_OF_PERICENTER = 296.9594
MEAN_ANOMALY   = 63.0706

EPHEMERIS_TYPE = 0
CLASSIFICATION_TYPE = U
NORAD_CAT_ID   = 31792
ELEMENT_SET_NO = 999
REV_AT_EPOCH   = 96152
BSTAR          = .1297E-3
MEAN_MOTION_DOT = .194E-5
MEAN_MOTION_DDOT = 0

CCSDS_OMM_VERS = 2.0
CREATION_DATE  = 
ORIGINATOR     = 

OBJECT_NAME    = SL-16 R/B
OBJECT_ID      = 2007-029B
CENTER_NAME    = EARTH
REF_FRAME      = TEME
TIME_SYSTEM    = UTC
MEAN_ELEMENT_THEORY = SGP/SGP4

EPOCH          = 2026-02-19T11:00:17.455104
MEAN_MOTION    = 14.14836666
ECCENTRICITY   = .0002388
INCLINATION    = 70.9746
RA_OF_ASC_NODE = 210.7052
ARG_OF_PERICENTER = 281.6253
MEAN_ANOMALY   = 110.0867

EPHEMERIS_TYPE = 0
CLASSIFICATION_TYPE = U
NORAD_CAT_ID   = 31793
ELEMENT_SET_NO = 999
REV_AT_EPOCH   = 96279
BSTAR          = .1828E-6
MEAN_MOTION_DOT = -.48E-6
MEAN_MOTION_DDOT = 0

CCSDS_OMM_VERS = 2.0
CREATION_DATE  = 
ORIGINATOR     = 

OBJECT_NAME    = KORONAS-FOTON
OBJECT_ID      = 2009-003A
CENTER_NAME    = EARTH
REF_FRAME      = TEME
TIME_SYSTEM    = UTC
MEAN_ELEMENT_THEORY = SGP/SGP4

EPOCH          = 2026-02-19T02:06:44.549568
MEAN_MOTION    = 15.42820823
ECCENTRICITY   = .00095409
INCLINATION    = 82.4305
RA_OF_ASC_NODE = 295.2105
ARG_OF_PERICENTER = 216.9174
MEAN_ANOMALY   = 143.1417

EPHEMERIS_TYPE = 0
CLASSIFICATION_TYPE = U
NORAD_CAT_ID   = 33504
ELEMENT_SET_NO = 999
REV_AT_EPOCH   = 94287
BSTAR          = .26608198E-3
MEAN_MOTION_DOT = .11711E-3
MEAN_MOTION_DDOT = 0

CCSDS_OMM_VERS = 2.0
CREATION_DATE  = 
ORIGINATOR     = 

OBJECT_NAME    = CZ-2C R/B
OBJECT_ID      = 2011-030B
CENTER_NAME    = EARTH
REF_FRAME      = TEME
TIME_SYSTEM    = UTC
MEAN_ELEMENT_THEORY = SGP/SGP4

EPOCH          = 2026-02-19T10:47:10.245696
MEAN_MOTION    = 14.81145108
ECCENTRICITY   = .005393
INCLINATION    = 97.8516
RA_OF_ASC_NODE = 8.0833
ARG_OF_PERICENTER = 50.6942
MEAN_ANOMALY   = 62.5618

EPHEMERIS_TYPE = 0
CLASSIFICATION_TYPE = U
NORAD_CAT_ID   = 37731
ELEMENT_SET_NO = 999
REV_AT_EPOCH   = 78739
BSTAR          = .19277E-3
MEAN_MOTION_DOT = .1482E-4
MEAN_MOTION_DDOT = 0

CCSDS_OMM_VERS = 2.0
CREATION_DATE  = 
ORIGINATOR     = 

OBJECT_NAME    = H-2A R/B
OBJECT_ID      = 2012-025E
CENTER_NAME    = EARTH
REF_FRAME      = TEME
TIME_SYSTEM    = UTC
MEAN_ELEMENT_THEORY = SGP/SGP4

EPOCH          = 2026-02-19T09:22:38.436096
MEAN_MOTION    = 14.95000391
ECCENTRICITY   = .0045204
INCLINATION    = 98.4709
RA_OF_ASC_NODE = 15.9799
ARG_OF_PERICENTER = 14.8609
MEAN_ANOMALY   = 345.3926

EPHEMERIS_TYPE = 0
CLASSIFICATION_TYPE = U
NORAD_CAT_ID   = 38341
ELEMENT_SET_NO = 999
REV_AT_EPOCH   = 74548
BSTAR          = .35566E-3
MEAN_MOTION_DOT = .3899E-4
MEAN_MOTION_DDOT = 0

CCSDS_OMM_VERS = 2.0
CREATION_DATE  = 
ORIGINATOR     = 

OBJECT_NAME    = SHIJIAN-16 (SJ-16)
OBJECT_ID      = 2013-057A
CENTER_NAME    = EARTH
REF_FRAME      = TEME
TIME_SYSTEM    = UTC
MEAN_ELEMENT_THEORY = SGP/SGP4

EPOCH          = 2026-02-19T12:40:14.625984
MEAN_MOTION    = 14.92265606
ECCENTRICITY   = .0016294
INCLINATION    = 74.9701
RA_OF_ASC_NODE = 219.4671
ARG_OF_PERICENTER = 158.5741
MEAN_ANOMALY   = 201.6133

EPHEMERIS_TYPE = 0
CLASSIFICATION_TYPE = U
NORAD_CAT_ID   = 39358
ELEMENT_SET_NO = 999
REV_AT_EPOCH   = 66879
BSTAR          = .81519E-4
MEAN_MOTION_DOT = .805E-5
MEAN_MOTION_DDOT = 0

